SAR-LUPE 2              
1 31797U 07030A   26197.87227500  .00017871  00000+0  28088-3 0  9995
2 31797  98.1066 306.0880 0004902 196.7750 163.3340 15.53700269 61548
SAPPHIRE                
1 39088U 13009C   26197.79064431  .00000025  00000+0  23587-4 0  9995
2 39088  98.4275  16.5456 0011682 155.3634 204.8112 14.35247799700823
PRAETORIAN SDA_602      
1 65565U 25203A   26197.51974816  .00000028  00000+0  14120-4 0  9996
2 65565  81.3045 343.6100 0007094 114.5864 245.6032 13.83887947 42754
PRAETORIAN SDA_603      
1 65566U 25203B   26197.54796275  .00000099  00000+0  77963-4 0  9993
2 65566  81.3050 343.5053 0010790 111.1723 249.0587 13.83962699 42763
PRAETORIAN SDA_604      
1 65567U 25203C   26197.51407610  .00000026  00000+0  13055-4 0  9995
2 65567  81.3068 343.9947 0006613 118.4051 241.7772 13.83050104 42733
PRAETORIAN SDA_605      
1 65568U 25203D   26197.47362196  .00000033  00000+0  19565-4 0  9990
2 65568  81.3032 343.6722 0009335 110.1511 250.0650 13.83200138 42740
PRAETORIAN SDA_606      
1 65569U 25203E   26197.53113125  .00000022  00000+0  87966-5 0  9993
2 65569  81.3069 343.8575 0007201 112.9895 247.2021 13.83200107 42740
PRAETORIAN SDA_607      
1 65570U 25203F   26197.52095095  .00000122  00000+0  99308-4 0  9992
2 65570  81.3052 343.4856 0010009 110.4249 249.7983 13.83759276 42760
PRAETORIAN SDA_608      
1 65571U 25203G   26197.86493265  .00000042  00000+0  27088-4 0  9998
2 65571  81.3022 343.3302 0007111 116.3006 243.8881 13.83819577 42795
PRAETORIAN SDA_609      
1 65572U 25203H   26197.50002516  .00000112  00000+0  89547-4 0  9991
2 65572  81.3063 343.6456 0007990 112.0605 248.1401 13.84211646 42753
PRAETORIAN SDA_610      
1 65573U 25203J   26197.84718139  .00000059  00000+0  42780-4 0  9992
2 65573  81.3023 343.3104 0007831 115.8235 244.3730 13.83528361 42792
PRAETORIAN SDA_611      
1 65574U 25203K   26197.49470286  .00000341  00000+0  30019-3 0  9997
2 65574  81.3031 343.8195 0006686 120.9176 239.2638 13.83310841 42731
PRAETORIAN SDA_612      
1 65575U 25203L   26197.51998639  .00000094  00000+0  72675-4 0  9998
2 65575  81.3044 343.3106 0010391 111.9227 248.3036 13.85040844 42770
PRAETORIAN SDA_613      
1 65576U 25203M   26197.80239600  .00000039  00000+0  24804-4 0  9997
2 65576  81.3014 343.5551 0006805 111.3668 248.8214 13.82767779 42775
PRAETORIAN SDA_614      
1 65577U 25203N   26197.51470441  .00000025  00000+0  11937-4 0  9994
2 65577  81.3029 343.4006 0008244 110.1451 250.0594 13.84778625 42772
PRAETORIAN SDA_615      
1 65578U 25203P   26197.49880693  .00000112  00000+0  89057-4 0  9991
2 65578  81.3038 343.3979 0010145 110.5545 249.6701 13.84438020 42767
PRAETORIAN SDA_616      
1 65579U 25203Q   26197.78411723  .00000125  00000+0  10261-3 0  9992
2 65579  81.3080 343.7174 0006583 118.5331 241.6488 13.83269989 42778
PRAETORIAN SDA_617      
1 65580U 25203R   26197.51889487  .00000035  00000+0  20700-4 0  9991
2 65580  81.3052 343.7907 0008504 110.4767 249.7302 13.83152201 42741
PRAETORIAN SDA_618      
1 65581U 25203S   26197.53863522  .00000062  00000+0  44876-4 0  9996
2 65581  81.3035 343.2933 0010905 113.6087 246.6215 13.84225696 42777
PRAETORIAN SDA_619      
1 65582U 25203T   26197.51414865 -.00000017  00000+0 -25857-4 0  9997
2 65582  81.3060 343.6454 0009292 111.4394 248.7755 13.83804919 43382
PRAETORIAN SDA_620      
1 65583U 25203U   26197.47748139  .00000106  00000+0  85604-4 0  9990
2 65583  81.3045 343.7126 0008699 107.8451 252.3655 13.83208792 42742
PRAETORIAN SDA_621      
1 65584U 25203V   26197.51598694  .00000026  00000+0  12665-4 0  9993
2 65584  81.3035 343.5756 0008504 105.8708 254.3386 13.83803833 42758
PRAETORIAN SDA_601      
1 65585U 25203W   26197.50004397 -.00000122  00000+0 -12251-3 0  9994
2 65585  81.3062 343.9197 0006545 122.0492 238.1300 13.83169206 42739
VICTUS HAZE PUMA        
1 69646U 26142A   26197.29810792  .00001778  00000+0  84764-4 0  9994
2 69646  97.4461  94.5882 0022441 264.2185  95.6491 15.20227445  4090
